{
    "links": {
        "self": "http://www.neowsapp.com/rest/v1/neo/3141536?api_key=iIulBulltgU6a56xZRHN4H3l9WmuAYTsLGpBGhQ2"
    },
    "id": "3141536",
    "neo_reference_id": "3141536",
    "name": "(2002 VU17)",
    "designation": "2002 VU17",
    "nasa_jpl_url": "http://ssd.jpl.nasa.gov/sbdb.cgi?sstr=3141536",
    "absolute_magnitude_h": 24.9,
    "estimated_diameter": {
        "kilometers": {
            "estimated_diameter_min": 0.0278326768,
            "estimated_diameter_max": 0.0622357573
        },
        "meters": {
            "estimated_diameter_min": 27.8326768072,
            "estimated_diameter_max": 62.2357573367
        },
        "miles": {
            "estimated_diameter_min": 0.0172944182,
            "estimated_diameter_max": 0.0386714948
        },
        "feet": {
            "estimated_diameter_min": 91.3145593761,
            "estimated_diameter_max": 204.1855621004
        }
    },
    "is_potentially_hazardous_asteroid": false,
    "close_approach_data": [
        {
            "close_approach_date": "1948-11-26",
            "close_approach_date_full": "1948-Nov-26 21:15",
            "epoch_date_close_approach": -665721900000,
            "relative_velocity": {
                "kilometers_per_second": "20.5969401534",
                "kilometers_per_hour": "74148.9845523613",
                "miles_per_hour": "46073.2954292158"
            },
            "miss_distance": {
                "astronomical": "0.2818168276",
                "lunar": "109.6267459364",
                "kilometers": "42159197.139117212",
                "miles": "26196510.3539210456"
            },
            "orbiting_body": "Earth"
        },
        {
            "close_approach_date": "2002-11-01",
            "close_approach_date_full": "2002-Nov-01 09:45",
            "epoch_date_close_approach": 1036143900000,
            "relative_velocity": {
                "kilometers_per_second": "11.3331994626",
                "kilometers_per_hour": "40799.5180654291",
                "miles_per_hour": "25351.2338779329"
            },
            "miss_distance": {
                "astronomical": "0.0315958295",
                "lunar": "12.2907776755",
                "kilometers": "4726668.794083165",
                "miles": "2937015.797411077"
            },
            "orbiting_body": "Earth"
        }
    ],
    "orbital_data": {
        "orbit_id": "16",
        "orbit_determination_date": "2017-04-06 09:14:40",
        "first_observation_date": "2002-11-07",
        "last_observation_date": "2002-12-05",
        "data_arc_in_days": 28,
        "observations_used": 51,
        "orbit_uncertainty": "8",
        "minimum_orbit_intersection": ".0100471",
        "jupiter_tisserand_invariant": "3.191",
        "epoch_osculation": "2452598.5",
        "eccentricity": ".6161595566721977",
        "semi_major_axis": "2.471150921089992",
        "inclination": "1.497009566653352",
        "ascending_node_longitude": "55.67658606354292",
        "orbital_period": "1418.885438800673",
        "perihelion_distance": ".9485276650810895",
        "perihelion_argument": "308.7580535620778",
        "aphelion_distance": "3.993774177098895",
        "perihelion_time": "2452554.588976338987",
        "mean_anomaly": "11.14111688349309",
        "mean_motion": ".2537202723739934",
        "equinox": "J2000",
        "orbit_class": {
            "orbit_class_type": "APO",
            "orbit_class_description": "Near-Earth asteroid orbits which cross the Earth’s orbit similar to that of 1862 Apollo",
            "orbit_class_range": "a (semi-major axis) > 1.0 AU; q (perihelion) < 1.017 AU"
        }
    },
    "is_sentry_object": false
}